[
  {
    "OBJECT_NAME": "STARLINK-30856",
    "OBJECT_ID": "2024-002W",
    "EPOCH": "2024-01-31T11:39:06.023232",
    "MEAN_MOTION": 15.2802174,
    "ECCENTRICITY": 0.0001848,
    "INCLINATION": 53.1602,
    "RA_OF_ASC_NODE": 113.2686,
    "ARG_OF_PERICENTER": 84.3934,
    "MEAN_ANOMALY": 275.7277,
    "EPHEMERIS_TYPE": 0,
    "CLASSIFICATION_TYPE": "U",
    "NORAD_CAT_ID": 58725,
    "ELEMENT_SET_NO": 999,
    "REV_AT_EPOCH": 546,
    "BSTAR": 0.0010064,
    "MEAN_MOTION_DOT": 0.0002763,
    "MEAN_MOTION_DDOT": 0
  },
  {
    "OBJECT_NAME": "STARLINK-31155",
    "OBJECT_ID": "2024-005A",
    "EPOCH": "2024-01-31T14:00:01.999872",
    "MEAN_MOTION": 15.42851013,
    "ECCENTRICITY": 0.0001567,
    "INCLINATION": 43.0001,
    "RA_OF_ASC_NODE": 80.0169,
    "ARG_OF_PERICENTER": 276.8974,
    "MEAN_ANOMALY": 68.54,
    "EPHEMERIS_TYPE": 0,
    "CLASSIFICATION_TYPE": "U",
    "NORAD_CAT_ID": 58728,
    "ELEMENT_SET_NO": 999,
    "REV_AT_EPOCH": 482,
    "BSTAR": -0.053318,
    "MEAN_MOTION_DOT": -0.02117598,
    "MEAN_MOTION_DDOT": 0
  },
  {
    "OBJECT_NAME": "STARLINK-31115",
    "OBJECT_ID": "2024-005B",
    "EPOCH": "2024-01-31T14:00:01.999872",
    "MEAN_MOTION": 15.43524518,
    "ECCENTRICITY": 0.0001127,
    "INCLINATION": 43,
    "RA_OF_ASC_NODE": 80.0024,
    "ARG_OF_PERICENTER": 276.9631,
    "MEAN_ANOMALY": 74.3608,
    "EPHEMERIS_TYPE": 0,
    "CLASSIFICATION_TYPE": "U",
    "NORAD_CAT_ID": 58729,
    "ELEMENT_SET_NO": 999,
    "REV_AT_EPOCH": 483,
    "BSTAR": -0.052168,
    "MEAN_MOTION_DOT": -0.02119521,
    "MEAN_MOTION_DDOT": 0
  },
  {
    "OBJECT_NAME": "STARLINK-31150",
    "OBJECT_ID": "2024-005C",
    "EPOCH": "2024-01-30T03:48:15.123168",
    "MEAN_MOTION": 15.74868456,
    "ECCENTRICITY": 0.0001512,
    "INCLINATION": 42.9997,
    "RA_OF_ASC_NODE": 87.3175,
    "ARG_OF_PERICENTER": 14.4537,
    "MEAN_ANOMALY": 345.6376,
    "EPHEMERIS_TYPE": 0,
    "CLASSIFICATION_TYPE": "U",
    "NORAD_CAT_ID": 58730,
    "ELEMENT_SET_NO": 999,
    "REV_AT_EPOCH": 461,
    "BSTAR": 0.0010767,
    "MEAN_MOTION_DOT": 0.00166977,
    "MEAN_MOTION_DDOT": 0
  },
  {
    "OBJECT_NAME": "STARLINK-31204",
    "OBJECT_ID": "2024-005D",
    "EPOCH": "2024-01-31T14:00:01.999872",
    "MEAN_MOTION": 15.44871136,
    "ECCENTRICITY": 0.0001393,
    "INCLINATION": 42.9999,
    "RA_OF_ASC_NODE": 79.9762,
    "ARG_OF_PERICENTER": 272.5296,
    "MEAN_ANOMALY": 89.529,
    "EPHEMERIS_TYPE": 0,
    "CLASSIFICATION_TYPE": "U",
    "NORAD_CAT_ID": 58731,
    "ELEMENT_SET_NO": 999,
    "REV_AT_EPOCH": 482,
    "BSTAR": -0.049886,
    "MEAN_MOTION_DOT": -0.02122551,
    "MEAN_MOTION_DDOT": 0
  },
  {
    "OBJECT_NAME": "STARLINK-31180",
    "OBJECT_ID": "2024-005E",
    "EPOCH": "2024-01-31T14:00:01.999872",
    "MEAN_MOTION": 15.45543542,
    "ECCENTRICITY": 0.0001402,
    "INCLINATION": 42.9998,
    "RA_OF_ASC_NODE": 79.9641,
    "ARG_OF_PERICENTER": 266.7294,
    "MEAN_ANOMALY": 100.1758,
    "EPHEMERIS_TYPE": 0,
    "CLASSIFICATION_TYPE": "U",
    "NORAD_CAT_ID": 58732,
    "ELEMENT_SET_NO": 999,
    "REV_AT_EPOCH": 483,
    "BSTAR": -0.048724,
    "MEAN_MOTION_DOT": -0.02121982,
    "MEAN_MOTION_DDOT": 0
  },
  {
    "OBJECT_NAME": "STARLINK-31164",
    "OBJECT_ID": "2024-005F",
    "EPOCH": "2024-01-31T14:00:01.999872",
    "MEAN_MOTION": 15.46215175,
    "ECCENTRICITY": 0.0001382,
    "INCLINATION": 42.9998,
    "RA_OF_ASC_NODE": 79.953,
    "ARG_OF_PERICENTER": 284.115,
    "MEAN_ANOMALY": 87.2921,
    "EPHEMERIS_TYPE": 0,
    "CLASSIFICATION_TYPE": "U",
    "NORAD_CAT_ID": 58733,
    "ELEMENT_SET_NO": 999,
    "REV_AT_EPOCH": 483,
    "BSTAR": -0.047598,
    "MEAN_MOTION_DOT": -0.02121904,
    "MEAN_MOTION_DDOT": 0
  },
  {
    "OBJECT_NAME": "STARLINK-31152",
    "OBJECT_ID": "2024-005G",
    "EPOCH": "2024-01-31T14:00:01.999872",
    "MEAN_MOTION": 15.46888209,
    "ECCENTRICITY": 0.0001475,
    "INCLINATION": 42.9998,
    "RA_OF_ASC_NODE": 79.943,
    "ARG_OF_PERICENTER": 286.9978,
    "MEAN_ANOMALY": 88.5634,
    "EPHEMERIS_TYPE": 0,
    "CLASSIFICATION_TYPE": "U",
    "NORAD_CAT_ID": 58734,
    "ELEMENT_SET_NO": 999,
    "REV_AT_EPOCH": 482,
    "BSTAR": -0.046511,
    "MEAN_MOTION_DOT": -0.02122724,
    "MEAN_MOTION_DDOT": 0
  },
  {
    "OBJECT_NAME": "STARLINK-31157",
    "OBJECT_ID": "2024-005H",
    "EPOCH": "2024-01-31T06:00:02.000160",
    "MEAN_MOTION": 15.49171727,
    "ECCENTRICITY": 0.0001147,
    "INCLINATION": 42.9999,
    "RA_OF_ASC_NODE": 81.8753,
    "ARG_OF_PERICENTER": 262.1677,
    "MEAN_ANOMALY": 56.9481,
    "EPHEMERIS_TYPE": 0,
    "CLASSIFICATION_TYPE": "U",
    "NORAD_CAT_ID": 58735,
    "ELEMENT_SET_NO": 999,
    "REV_AT_EPOCH": 476,
    "BSTAR": -0.044536,
    "MEAN_MOTION_DOT": -0.02193491,
    "MEAN_MOTION_DDOT": 0
  },
  {
    "OBJECT_NAME": "STARLINK-31076",
    "OBJECT_ID": "2024-005J",
    "EPOCH": "2024-01-31T06:00:02.000160",
    "MEAN_MOTION": 15.49839802,
    "ECCENTRICITY": 0.0001562,
    "INCLINATION": 42.9997,
    "RA_OF_ASC_NODE": 81.8688,
    "ARG_OF_PERICENTER": 256.8349,
    "MEAN_ANOMALY": 64.9343,
    "EPHEMERIS_TYPE": 0,
    "CLASSIFICATION_TYPE": "U",
    "NORAD_CAT_ID": 58736,
    "ELEMENT_SET_NO": 999,
    "REV_AT_EPOCH": 483,
    "BSTAR": -0.04333,
    "MEAN_MOTION_DOT": -0.0218681,
    "MEAN_MOTION_DDOT": 0
  },
  {
    "OBJECT_NAME": "STARLINK-31101",
    "OBJECT_ID": "2024-005K",
    "EPOCH": "2024-01-31T14:00:01.999872",
    "MEAN_MOTION": 15.49580457,
    "ECCENTRICITY": 0.0001252,
    "INCLINATION": 42.9999,
    "RA_OF_ASC_NODE": 79.9101,
    "ARG_OF_PERICENTER": 284.7389,
    "MEAN_ANOMALY": 103.9756,
    "EPHEMERIS_TYPE": 0,
    "CLASSIFICATION_TYPE": "U",
    "NORAD_CAT_ID": 58737,
    "ELEMENT_SET_NO": 999,
    "REV_AT_EPOCH": 483,
    "BSTAR": -0.042414,
    "MEAN_MOTION_DOT": -0.02128174,
    "MEAN_MOTION_DDOT": 0
  },
  {
    "OBJECT_NAME": "STARLINK-31108",
    "OBJECT_ID": "2024-005L",
    "EPOCH": "2024-01-31T06:09:20.569248",
    "MEAN_MOTION": 15.50777485,
    "ECCENTRICITY": 0.0001551,
    "INCLINATION": 42.9995,
    "RA_OF_ASC_NODE": 81.8248,
    "ARG_OF_PERICENTER": 267.1757,
    "MEAN_ANOMALY": 92.8926,
    "EPHEMERIS_TYPE": 0,
    "CLASSIFICATION_TYPE": "U",
    "NORAD_CAT_ID": 58738,
    "ELEMENT_SET_NO": 999,
    "REV_AT_EPOCH": 478,
    "BSTAR": -0.0069641,
    "MEAN_MOTION_DOT": -0.00391881,
    "MEAN_MOTION_DDOT": 0
  },
  {
    "OBJECT_NAME": "STARLINK-31042",
    "OBJECT_ID": "2024-005M",
    "EPOCH": "2024-01-31T09:13:50.091456",
    "MEAN_MOTION": 15.5181329,
    "ECCENTRICITY": 0.0001295,
    "INCLINATION": 43.0001,
    "RA_OF_ASC_NODE": 81.0651,
    "ARG_OF_PERICENTER": 313.6241,
    "MEAN_ANOMALY": 46.4512,
    "EPHEMERIS_TYPE": 0,
    "CLASSIFICATION_TYPE": "U",
    "NORAD_CAT_ID": 58739,
    "ELEMENT_SET_NO": 999,
    "REV_AT_EPOCH": 479,
    "BSTAR": -0.0089282,
    "MEAN_MOTION_DOT": -0.00513424,
    "MEAN_MOTION_DDOT": 0
  },
  {
    "OBJECT_NAME": "STARLINK-31159",
    "OBJECT_ID": "2024-005N",
    "EPOCH": "2024-01-31T12:18:48.300192",
    "MEAN_MOTION": 15.51929692,
    "ECCENTRICITY": 0.0001995,
    "INCLINATION": 42.9997,
    "RA_OF_ASC_NODE": 80.3086,
    "ARG_OF_PERICENTER": 293.1033,
    "MEAN_ANOMALY": 66.9618,
    "EPHEMERIS_TYPE": 0,
    "CLASSIFICATION_TYPE": "U",
    "NORAD_CAT_ID": 58740,
    "ELEMENT_SET_NO": 999,
    "REV_AT_EPOCH": 491,
    "BSTAR": -0.0078522,
    "MEAN_MOTION_DOT": -0.00456796,
    "MEAN_MOTION_DDOT": 0
  }
]