STARLINK-30856          
1 58725U 24002W   24031.48548638  .00027630  00000+0  10064-2 0  9991
2 58725  53.1602 113.2686 0001848  84.3934 275.7277 15.28021740  5467
STARLINK-31155          
1 58728U 24005A   24031.58335648 -.02117598  00000+0 -53318-1 0  9998
2 58728  43.0001  80.0169 0001567 276.8974  68.5400 15.42851013  4823
STARLINK-31115          
1 58729U 24005B   24031.58335648 -.02119521  00000+0 -52168-1 0  9999
2 58729  43.0000  80.0024 0001127 276.9631  74.3608 15.43524518  4830
STARLINK-31150          
1 58730U 24005C   24030.15850837  .00166977  00000+0  10767-2 0  9998
2 58730  42.9997  87.3175 0001512  14.4537 345.6376 15.74868456  4618
STARLINK-31204          
1 58731U 24005D   24031.58335648 -.02122551  00000+0 -49886-1 0  9992
2 58731  42.9999  79.9762 0001393 272.5296  89.5290 15.44871136  4824
STARLINK-31180          
1 58732U 24005E   24031.58335648 -.02121982  00000+0 -48724-1 0  9990
2 58732  42.9998  79.9641 0001402 266.7294 100.1758 15.45543542  4832
STARLINK-31164          
1 58733U 24005F   24031.58335648 -.02121904  00000+0 -47598-1 0  9993
2 58733  42.9998  79.9530 0001382 284.1150  87.2921 15.46215175  4838
STARLINK-31152          
1 58734U 24005G   24031.58335648 -.02122724  00000+0 -46511-1 0  9999
2 58734  42.9998  79.9430 0001475 286.9978  88.5634 15.46888209  4827
STARLINK-31157          
1 58735U 24005H   24031.25002315 -.02193491  00000+0 -44536-1 0  9990
2 58735  42.9999  81.8753 0001147 262.1677  56.9481 15.49171727  4762
STARLINK-31076          
1 58736U 24005J   24031.25002315 -.02186810  00000+0 -43330-1 0  9999
2 58736  42.9997  81.8688 0001562 256.8349  64.9343 15.49839802  4834
STARLINK-31101          
1 58737U 24005K   24031.58335648 -.02128174  00000+0 -42414-1 0  9995
2 58737  42.9999  79.9101 0001252 284.7389 103.9756 15.49580457  4836
STARLINK-31108          
1 58738U 24005L   24031.25648807 -.00391881  00000+0 -69641-2 0  9991
2 58738  42.9995  81.8248 0001551 267.1757  92.8926 15.50777485  4783
STARLINK-31042          
1 58739U 24005M   24031.38460754 -.00513424  00000+0 -89282-2 0  9991
2 58739  43.0001  81.0651 0001295 313.6241  46.4512 15.51813290  4797
STARLINK-31159          
1 58740U 24005N   24031.51305903 -.00456796  00000+0 -78522-2 0  9995
2 58740  42.9997  80.3086 0001995 293.1033  66.9618 15.51929692  4915
